{"fetched_at":"2026-07-16T06:43:17.516Z","source":"https://celestrak.org/NORAD/elements/gp.php?NAME=SENTINEL&FORMAT=JSON","constellation":"sentinel-6","records":[{"OBJECT_NAME":"SENTINEL-6A","OBJECT_ID":"2020-086A","EPOCH":"2026-07-15T21:29:31.458336","CLASSIFICATION_TYPE":"U","MEAN_MOTION":12.80930207,"ECCENTRICITY":0.00077851,"INCLINATION":66.0412,"RA_OF_ASC_NODE":75.4259,"ARG_OF_PERICENTER":269.7432,"MEAN_ANOMALY":90.2691,"EPHEMERIS_TYPE":0,"NORAD_CAT_ID":46984,"ELEMENT_SET_NO":999,"REV_AT_EPOCH":26400,"BSTAR":0.00010611681,"MEAN_MOTION_DOT":-3.7e-7,"MEAN_MOTION_DDOT":0},{"OBJECT_NAME":"SENTINEL-6B","OBJECT_ID":"2025-264A","EPOCH":"2026-07-15T21:30:01.528128","CLASSIFICATION_TYPE":"U","MEAN_MOTION":12.80930176,"ECCENTRICITY":0.00078425,"INCLINATION":66.0413,"RA_OF_ASC_NODE":75.5515,"ARG_OF_PERICENTER":268.6793,"MEAN_ANOMALY":91.3323,"EPHEMERIS_TYPE":0,"NORAD_CAT_ID":66514,"ELEMENT_SET_NO":999,"REV_AT_EPOCH":3084,"BSTAR":0.000091101,"MEAN_MOTION_DOT":-4e-7,"MEAN_MOTION_DDOT":0}]}
