SENTINEL-6A             
1 46984U 20086A   26196.89550299 -.00000037  00000+0  10612-3 0  9991
2 46984  66.0412  75.4259 0007785 269.7432  90.2691 12.80930207264005
SENTINEL-6B             
1 66514U 25264A   26196.89585102 -.00000040  00000+0  91101-4 0  9993
2 66514  66.0413  75.5515 0007842 268.6793  91.3323 12.80930176 30847
